[{"OBJECT_NAME":"ONEWEB-0536","OBJECT_ID":"2022-138AM","EPOCH":"2026-03-09T16:12:37.965888","MEAN_MOTION":13.20771097,"ECCENTRICITY":0.00023244,"INCLINATION":87.9161,"RA_OF_ASC_NODE":294.3401,"ARG_OF_PERICENTER":65.8064,"MEAN_ANOMALY":294.3312,"EPHEMERIS_TYPE":0,"CLASSIFICATION_TYPE":"U","NORAD_CAT_ID":54148,"ELEMENT_SET_NO":999,"REV_AT_EPOCH":16616,"BSTAR":-0.00047838534,"MEAN_MOTION_DOT":-1.82e-6,"MEAN_MOTION_DDOT":0},{"OBJECT_NAME":"SL-14 DEB","OBJECT_ID":"1991-056AG","EPOCH":"2026-03-09T08:58:38.570592","MEAN_MOTION":13.21407113,"ECCENTRICITY":0.00056439,"INCLINATION":82.5684,"RA_OF_ASC_NODE":207.0766,"ARG_OF_PERICENTER":309.9446,"MEAN_ANOMALY":50.1183,"EPHEMERIS_TYPE":0,"CLASSIFICATION_TYPE":"U","NORAD_CAT_ID":45294,"ELEMENT_SET_NO":999,"REV_AT_EPOCH":29058,"BSTAR":0.0026423776,"MEAN_MOTION_DOT":1.097e-5,"MEAN_MOTION_DDOT":0}]
